STARLINK-4104           
1 53163U 22083AH  26068.57258538 -.00002579  00000+0 -14407-3 0  9991
2 53163  53.2164 164.7936 0000991  89.2621 270.8484 15.08823667201343
YAM-8                   
1 63254U 25052AW  26068.73092778  .00007810  00000+0  47267-3 0  9993
2 63254  97.7023 329.5345 0002369 152.6796 207.4558 15.10898938 54245
